[{"OBJECT_NAME":"STARLINK-1221","OBJECT_ID":"2020-012BB","EPOCH":"2026-03-09T20:19:19.583616","MEAN_MOTION":15.41921264,"ECCENTRICITY":0.00031743,"INCLINATION":53.0648,"RA_OF_ASC_NODE":268.8713,"ARG_OF_PERICENTER":49.9082,"MEAN_ANOMALY":310.22,"EPHEMERIS_TYPE":0,"CLASSIFICATION_TYPE":"U","NORAD_CAT_ID":45227,"ELEMENT_SET_NO":999,"REV_AT_EPOCH":33673,"BSTAR":0.00044901803,"MEAN_MOTION_DOT":0.00019024,"MEAN_MOTION_DDOT":0},{"OBJECT_NAME":"STARLINK-3633","OBJECT_ID":"2022-017AB","EPOCH":"2026-03-10T00:00:02.999808","MEAN_MOTION":15.39868705,"ECCENTRICITY":0.00016754,"INCLINATION":53.2187,"RA_OF_ASC_NODE":342.1898,"ARG_OF_PERICENTER":57.4392,"MEAN_ANOMALY":30.5181,"EPHEMERIS_TYPE":0,"CLASSIFICATION_TYPE":"U","NORAD_CAT_ID":51793,"ELEMENT_SET_NO":999,"REV_AT_EPOCH":584,"BSTAR":0.011808492,"MEAN_MOTION_DOT":0.00508972,"MEAN_MOTION_DDOT":0}]
